CZ-2C R/B               
1 52794U 22058K   25330.47492127  .00026386  00000+0  49202-3 0  9997
2 52794  50.1892 126.4236 0047321 131.2741 229.2317 15.47343705194115
CZ-2C R/B               
1 54039U 22132E   25330.50909534  .00026805  00000+0  41875-3 0  9997
2 54039  97.2950 326.4156 0023988 110.0052 250.3788 15.53438788174312
GSLV R/B                
1 54149U 22138AN  25330.66906783  .00003545  00000+0  31214-3 0  9997
2 54149  87.3842 200.8543 0022275 159.4316 200.7818 14.96009022168527
XRISM                   
1 57800U 23137A   25330.97196829  .00006582  00000+0  38802-3 0  9994
2 57800  31.0011 227.3337 0007601  85.1395 275.0110 15.10127967122246
ACS3                    
1 59588U 24077B   25330.78721286 -.00012845  00000+0 -11247-1 0  9996
2 59588  97.2863 289.9472 0073346   9.2734 350.9762 13.84342411 79932
